{
  "norad_id": 58786,
  "name": "STARLINK-31024",
  "history": [
    {
      "epoch": "2026-03-28T20:41:21.088032Z",
      "apogee_km": 476.04795604011724,
      "perigee_km": 474.43330027092543,
      "latitude_deg": 6.507255004545915e-05,
      "longitude_deg": 146.03337088258453,
      "height_km": 476.21064562123956,
      "semi_major_axis_km": 6853.377628155521,
      "eccentricity": 0.0001178,
      "inclination_deg": 53.1602,
      "raan_deg": 282.6476,
      "arg_perigee_deg": 95.1026,
      "mean_anomaly_deg": 265.011,
      "mean_motion_rev_day": 15.3019144
    },
    {
      "epoch": "2026-03-30T05:36:28.606752Z",
      "apogee_km": 476.03030743117597,
      "perigee_km": 474.45951229743423,
      "latitude_deg": -4.2196453707827866e-05,
      "longitude_deg": 4.531638449489408,
      "height_km": 476.075269190852,
      "semi_major_axis_km": 6853.381909864304,
      "eccentricity": 0.0001146,
      "inclination_deg": 53.1596,
      "raan_deg": 276.2792,
      "arg_perigee_deg": 85.044,
      "mean_anomaly_deg": 275.0691,
      "mean_motion_rev_day": 15.30190006
    },
    {
      "epoch": "2026-03-30T05:36:28.607616Z",
      "apogee_km": 476.03023889735505,
      "perigee_km": 474.45958083125333,
      "latitude_deg": -4.1277274716032506e-05,
      "longitude_deg": 4.531635524466546,
      "height_km": 476.07527511137204,
      "semi_major_axis_km": 6853.381909864304,
      "eccentricity": 0.00011459,
      "inclination_deg": 53.1596,
      "raan_deg": 276.2792,
      "arg_perigee_deg": 85.044,
      "mean_anomaly_deg": 275.0691,
      "mean_motion_rev_day": 15.30190006
    },
    {
      "epoch": "2026-03-30T18:08:54.486816Z",
      "apogee_km": 476.08941597752073,
      "perigee_km": 474.4302086092657,
      "latitude_deg": -3.034668957161427e-05,
      "longitude_deg": 173.4823933343957,
      "height_km": 476.1372310206827,
      "semi_major_axis_km": 6853.396812293393,
      "eccentricity": 0.00012105,
      "inclination_deg": 53.1599,
      "raan_deg": 273.8528,
      "arg_perigee_deg": 88.5684,
      "mean_anomaly_deg": 271.5455,
      "mean_motion_rev_day": 15.30185015
    },
    {
      "epoch": "2026-03-31T01:59:09.943872Z",
      "apogee_km": 476.0667080343437,
      "perigee_km": 474.4068209085881,
      "latitude_deg": -7.324403459997452e-05,
      "longitude_deg": 54.077477470386754,
      "height_km": 475.9032966959732,
      "semi_major_axis_km": 6853.373764471466,
      "eccentricity": 0.0001211,
      "inclination_deg": 53.16,
      "raan_deg": 272.3342,
      "arg_perigee_deg": 73.7889,
      "mean_anomaly_deg": 286.3244,
      "mean_motion_rev_day": 15.30192734
    },
    {
      "epoch": "2026-04-01T04:38:04.323840Z",
      "apogee_km": 475.94907312453233,
      "perigee_km": 474.534398685867,
      "latitude_deg": -3.338497483442306e-05,
      "longitude_deg": 8.096612995689759,
      "height_km": 476.25577031160987,
      "semi_major_axis_km": 6853.378735905199,
      "eccentricity": 0.00010321,
      "inclination_deg": 53.1593,
      "raan_deg": 267.1743,
      "arg_perigee_deg": 99.4138,
      "mean_anomaly_deg": 260.6979,
      "mean_motion_rev_day": 15.30191069
    },
    {
      "epoch": "2026-04-02T10:25:05.016576Z",
      "apogee_km": 475.88761767420146,
      "perigee_km": 474.561081051419,
      "latitude_deg": 3.935410757003365e-05,
      "longitude_deg": -85.64198385489976,
      "height_km": 475.77955069555384,
      "semi_major_axis_km": 6853.36134936281,
      "eccentricity": 9.678e-05,
      "inclination_deg": 53.163,
      "raan_deg": 261.4117,
      "arg_perigee_deg": 58.78,
      "mean_anomaly_deg": 301.3296,
      "mean_motion_rev_day": 15.30196892
    },
    {
      "epoch": "2026-04-03T17:46:11.036928Z",
      "apogee_km": 476.7224758658458,
      "perigee_km": 473.71796406061367,
      "latitude_deg": -1.2760719969084403e-05,
      "longitude_deg": 156.73022542936576,
      "height_km": 476.0043724129055,
      "semi_major_axis_km": 6853.357219963229,
      "eccentricity": 0.0002192,
      "inclination_deg": 53.1593,
      "raan_deg": 255.3466,
      "arg_perigee_deg": 85.7038,
      "mean_anomaly_deg": 274.4213,
      "mean_motion_rev_day": 15.30198275
    },
    {
      "epoch": "2026-04-04T20:25:02.721216Z",
      "apogee_km": 475.81274070435575,
      "perigee_km": 474.5832524059733,
      "latitude_deg": -1.8336172622399887e-05,
      "longitude_deg": 110.75818750331693,
      "height_km": 476.14354243910077,
      "semi_major_axis_km": 6853.334996555164,
      "eccentricity": 8.97e-05,
      "inclination_deg": 53.1603,
      "raan_deg": 250.1843,
      "arg_perigee_deg": 94.3782,
      "mean_anomaly_deg": 265.7321,
      "mean_motion_rev_day": 15.30205718
    },
    {
      "epoch": "2026-04-05T13:39:38.566368Z",
      "apogee_km": 476.1497077409331,
      "perigee_km": 474.3887935388939,
      "latitude_deg": -2.8814031444294995e-05,
      "longitude_deg": -151.93793303460214,
      "height_km": 476.2464239639421,
      "semi_major_axis_km": 6853.406250639913,
      "eccentricity": 0.00012847,
      "inclination_deg": 53.1603,
      "raan_deg": 246.8457,
      "arg_perigee_deg": 95.1533,
      "mean_anomaly_deg": 264.9614,
      "mean_motion_rev_day": 15.30181854
    },
    {
      "epoch": "2026-04-05T15:13:41.799648Z",
      "apogee_km": 476.11603304081746,
      "perigee_km": 474.42735313883986,
      "latitude_deg": 2.3081511462071647e-05,
      "longitude_deg": -175.81924408649527,
      "height_km": 476.0621979408525,
      "semi_major_axis_km": 6853.408693089828,
      "eccentricity": 0.0001232,
      "inclination_deg": 53.1604,
      "raan_deg": 246.5422,
      "arg_perigee_deg": 82.6737,
      "mean_anomaly_deg": 277.4404,
      "mean_motion_rev_day": 15.30181036
    },
    {
      "epoch": "2026-04-07T12:41:14.493408Z",
      "apogee_km": 475.9480112698129,
      "perigee_km": 474.5178500326838,
      "latitude_deg": -5.9883613150453766e-05,
      "longitude_deg": -148.3687727275574,
      "height_km": 475.82597903802866,
      "semi_major_axis_km": 6853.369930651248,
      "eccentricity": 0.00010434,
      "inclination_deg": 53.1598,
      "raan_deg": 237.7459,
      "arg_perigee_deg": 64.7122,
      "mean_anomaly_deg": 295.3986,
      "mean_motion_rev_day": 15.30194018
    },
    {
      "epoch": "2026-04-07T15:49:20.933184Z",
      "apogee_km": 475.92153448099907,
      "perigee_km": 474.5508598415663,
      "latitude_deg": 1.472464317441974e-05,
      "longitude_deg": 163.86989518395825,
      "height_km": 475.9677895216589,
      "semi_major_axis_km": 6853.373197161282,
      "eccentricity": 0.0001,
      "inclination_deg": 53.1601,
      "raan_deg": 237.1401,
      "arg_perigee_deg": 75.9053,
      "mean_anomaly_deg": 284.2059,
      "mean_motion_rev_day": 15.30192924
    },
    {
      "epoch": "2026-04-08T15:20:08.952864Z",
      "apogee_km": 476.0166923481056,
      "perigee_km": 474.47248840816064,
      "latitude_deg": -4.8878822940243614e-05,
      "longitude_deg": 165.65670431371396,
      "height_km": 475.9729263692332,
      "semi_major_axis_km": 6853.381590378132,
      "eccentricity": 0.00011266,
      "inclination_deg": 53.1604,
      "raan_deg": 232.5927,
      "arg_perigee_deg": 77.2789,
      "mean_anomaly_deg": 282.8337,
      "mean_motion_rev_day": 15.30190113
    },
    {
      "epoch": "2026-04-09T14:50:56.487840Z",
      "apogee_km": 476.1710973118479,
      "perigee_km": 474.3028675642354,
      "latitude_deg": -5.530403050824003e-06,
      "longitude_deg": 167.44081831331354,
      "height_km": 476.0396356025358,
      "semi_major_axis_km": 6853.373982438041,
      "eccentricity": 0.0001363,
      "inclination_deg": 53.1603,
      "raan_deg": 228.0405,
      "arg_perigee_deg": 84.1422,
      "mean_anomaly_deg": 275.9734,
      "mean_motion_rev_day": 15.30192661
    }
  ]
}